NORAD_CAT_ID,OBJECT_NAME,OBJECT_TYPE,EPOCH,MEAN_MOTION,ECCENTRICITY,INCLINATION,RA_OF_ASC_NODE,ARG_OF_PERICENTER,MEAN_ANOMALY,BSTAR,MEAN_MOTION_DOT,MEAN_MOTION_DDOT,TLE_LINE0,TLE_LINE1,TLE_LINE2,SEMIMAJOR_AXIS,PERIOD,APOGEE,PERIGEE,DECAYED
56793.0,STARLINK-6052,PAYLOAD,2024-07-28 21:20:54,14.98330579,0.0003075,70.0003,29.031,267.5024,92.5783,-0.00026319,-3.232e-05,0.0,0 STARLINK-6052,1 56793U 23078AC  24210.88951936 -.00003232  00000-0 -26319-3 0  9994,2 56793  70.0003  29.0310 0003075 267.5024  92.5783 14.98330579 64483,6950.191,96.107,574.193,569.919,0.0
56793.0,STARLINK-6052,PAYLOAD,2024-07-29 11:46:06,14.98327882,0.0002997,70.0004,27.5155,266.9094,93.1722,-8.0521e-05,-1.054e-05,0.0,0 STARLINK-6052,1 56793U 23078AC  24211.49035499 -.00001054  00000-0 -80521-4 0  9995,2 56793  70.0004  27.5155 0002997 266.9094  93.1722 14.98327882 64838,6950.199,96.107,574.147,569.981,0.0
56793.0,STARLINK-6052,PAYLOAD,2024-07-29 21:22:54,14.98329846,0.0002981,70.0006,26.5057,266.841,93.2408,-4.1993e-05,-5.94e-06,0.0,0 STARLINK-6052,1 56793U 23078AC  24211.89091360 -.00000594  00000-0 -41993-4 0  9996,2 56793  70.0006  26.5057 0002981 266.8410  93.2408 14.98329846 64636,6950.193,96.107,574.13,569.987,0.0
56793.0,STARLINK-6052,PAYLOAD,2024-07-30 11:48:07,14.98322598,0.0003156,70.0002,24.9897,269.047,91.0327,0.00018413,2.104e-05,0.0,0 STARLINK-6052,1 56793U 23078AC  24212.49175434  .00002104  00000-0  18413-3 0  9995,2 56793  70.0002  24.9897 0003156 269.0470  91.0327 14.98322598 64983,6950.216,96.107,574.274,569.887,0.0
56793.0,STARLINK-6052,PAYLOAD,2024-07-30 18:12:39,14.98328692,0.0003176,70.0003,24.317,270.1719,89.9076,0.00019642,2.251e-05,0.0,0 STARLINK-6052,1 56793U 23078AC  24212.75879137  .00002251  00000-0  19642-3 0  9993,2 56793  70.0003  24.3170 0003176 270.1719  89.9076 14.98328692 64767,6950.197,96.107,574.269,569.855,0.0
56793.0,STARLINK-6052,PAYLOAD,2024-07-31 13:26:17,14.98326259,0.0003031,70.0005,22.2967,270.8264,89.2547,1.1518e-05,4.4e-07,0.0,0 STARLINK-6052,1 56793U 23078AC  24213.55991951  .00000044  00000-0  11518-4 0  9994,2 56793  70.0005  22.2967 0003031 270.8264  89.2547 14.98326259 65148,6950.204,96.107,574.176,569.963,0.0
56793.0,STARLINK-6052,PAYLOAD,2024-07-31 15:02:25,14.98326274,0.0003035,70.0005,22.1284,270.8171,89.2641,1.0853e-05,3.6e-07,0.0,0 STARLINK-6052,1 56793U 23078AC  24213.62667964  .00000036  00000-0  10853-4 0  9998,2 56793  70.0005  22.1284 0003035 270.8171  89.2641 14.98326274 64893,6950.204,96.107,574.179,569.96,0.0
56793.0,STARLINK-6052,PAYLOAD,2024-07-31 21:26:57,14.98327818,0.000315,70.0006,21.4557,271.0728,89.0071,1.3608e-05,6.9e-07,0.0,0 STARLINK-6052,1 56793U 23078AC  24213.89371906  .00000069  00000-0  13608-4 0  9992,2 56793  70.0006  21.4557 0003150 271.0728  89.0071 14.98327818 64933,6950.2,96.107,574.254,569.875,0.0
56793.0,STARLINK-6052,PAYLOAD,2024-08-01 11:52:09,14.98334963,0.0003182,70.0006,19.941,270.6335,89.4459,3.2073e-05,2.9e-06,0.0,0 STARLINK-6052,1 56793U 23078AC  24214.49455361  .00000290  00000-0  32073-4 0  9990,2 56793  70.0006  19.9410 0003182 270.6335  89.4459 14.98334963 65021,6950.178,96.107,574.254,569.831,0.0
56793.0,STARLINK-6052,PAYLOAD,2024-08-01 19:52:49,14.9834271,0.000303,70.0008,19.0991,272.8438,87.2374,7.4328e-05,7.94e-06,0.0,0 STARLINK-6052,1 56793U 23078AC  24214.82834610  .00000794  00000-0  74328-4 0  9993,2 56793  70.0008  19.0991 0003030 272.8438  87.2374 14.98342710 65333,6950.154,96.106,574.124,569.913,0.0
56793.0,STARLINK-6052,PAYLOAD,2024-08-01 21:28:57,14.98343714,0.0002963,70.0009,18.9308,272.6866,87.3954,8.4817e-05,9.2e-06,0.0,0 STARLINK-6052,1 56793U 23078AC  24214.89510481  .00000920  00000-0  84817-4 0  9992,2 56793  70.0009  18.9308 0002963 272.6866  87.3954 14.98343714 65083,6950.15,96.106,574.075,569.956,0.0
56793.0,STARLINK-6052,PAYLOAD,2024-08-02 03:53:30,14.98333099,0.0002809,70.0023,18.257,270.7115,89.3723,2.0601e-07,-9e-07,0.0,0 STARLINK-6052,1 56793U 23078AC  24215.16215328 -.00000090  00000-0  20601-6 0  9997,2 56793  70.0023  18.2570 0002809 270.7115  89.3723 14.98333099 65382,6950.183,96.107,574.001,570.096,0.0
56793.0,STARLINK-6052,PAYLOAD,2024-08-02 15:06:26,14.98323578,0.0002852,70.0016,17.0792,269.5758,90.5074,3.0156e-05,2.67e-06,0.0,0 STARLINK-6052,1 56793U 23078AC  24215.62947836  .00000267  00000-0  30156-4 0  9993,2 56793  70.0016  17.0792 0002852 269.5758  90.5074 14.98323578 65197,6950.213,96.107,574.06,570.096,0.0
56793.0,STARLINK-6052,PAYLOAD,2024-08-02 19:54:51,14.98321534,0.0002736,70.002,16.5745,264.9609,95.1237,3.1938e-05,2.88e-06,0.0,0 STARLINK-6052,1 56793U 23078AC  24215.82976010  .00000288  00000-0  31938-4 0  9993,2 56793  70.0020  16.5745 0002736 264.9609  95.1237 14.98321534 65483,6950.219,96.108,573.986,570.182,0.0
56793.0,STARLINK-6052,PAYLOAD,2024-08-02 21:30:59,14.9832273,0.0002787,70.002,16.4062,265.4562,94.6278,4.2254e-05,4.11e-06,0.0,0 STARLINK-6052,1 56793U 23078AC  24215.89651952  .00000411  00000-0  42254-4 0  9996,2 56793  70.0020  16.4062 0002787 265.4562  94.6278 14.98322730 65235,6950.215,96.107,574.017,570.143,0.0
56793.0,STARLINK-6052,PAYLOAD,2024-08-03 11:56:11,14.98335815,0.0003059,70.0012,14.8909,267.6926,92.3882,-2.8121e-05,-4.29e-06,0.0,0 STARLINK-6052,1 56793U 23078AC  24216.49735236 -.00000429  00000-0 -28121-4 0  9999,2 56793  70.0012  14.8909 0003059 267.6926  92.3882 14.98335815 65581,6950.175,96.107,574.166,569.914,0.0
56793.0,STARLINK-6052,PAYLOAD,2024-08-03 15:08:27,14.98336297,0.0002909,70.0015,14.5549,268.4417,91.6408,5.0433e-06,-3.3e-07,0.0,0 STARLINK-6052,1 56793U 23078AC  24216.63087100 -.00000033  00000-0  50433-5 0  9997,2 56793  70.0015  14.5549 0002909 268.4417  91.6408 14.98336297 65343,6950.173,96.107,574.06,570.017,0.0
56793.0,STARLINK-6052,PAYLOAD,2024-08-03 19:56:51,14.98338345,0.0003059,70.0011,14.0495,269.5367,90.5442,8.8845e-06,1.3e-07,0.0,0 STARLINK-6052,1 56793U 23078AC  24216.83114864  .00000013  00000-0  88845-5 0  9992,2 56793  70.0011  14.0495 0003059 269.5367  90.5442 14.98338345 65372,6950.167,96.106,574.158,569.906,0.0
56793.0,STARLINK-6052,PAYLOAD,2024-08-04 11:58:12,14.98323816,0.0003086,70.0012,12.3667,269.1553,90.9253,4.8927e-05,4.91e-06,0.0,0 STARLINK-6052,1 56793U 23078AC  24217.49875607  .00000491  00000-0  48927-4 0  9990,2 56793  70.0012  12.3667 0003086 269.1553  90.9253 14.98323816 65739,6950.212,96.107,574.222,569.932,0.0
56793.0,STARLINK-6052,PAYLOAD,2024-08-04 15:10:28,14.98325376,0.0003024,70.0011,12.0295,266.6507,93.4306,6.9553e-05,7.37e-06,0.0,0 STARLINK-6052,1 56793U 23078AC  24217.63227473  .00000737  00000-0  69553-4 0  9999,2 56793  70.0011  12.0295 0003024 266.6507  93.4306 14.98325376 65498,6950.207,96.107,574.174,569.97,0.0
56793.0,STARLINK-6052,PAYLOAD,2024-08-04 19:58:52,14.98332374,0.0003072,70.0007,11.5242,270.3236,89.7571,9.5071e-05,1.042e-05,0.0,0 STARLINK-6052,1 56793U 23078AC  24217.83254989  .00001042  00000-0  95071-4 0  9997,2 56793  70.0007  11.5242 0003072 270.3236  89.7571 14.98332374 65783,6950.186,96.107,574.186,569.915,0.0
56793.0,STARLINK-6052,PAYLOAD,2024-08-05 20:00:52,14.98337308,0.0003001,70.001,8.9983,268.4238,91.6577,4.5586e-05,4.51e-06,0.0,0 STARLINK-6052,1 56793U 23078AC  24218.83394616  .00000451  00000-0  45586-4 0  9999,2 56793  70.0010   8.9983 0003001 268.4238  91.6577 14.98337308 65938,6950.17,96.107,574.121,569.95,0.0
56793.0,STARLINK-6052,PAYLOAD,2024-08-06 04:01:33,14.98332031,0.0002968,70.0014,8.1568,272.9358,87.1461,-7.4802e-05,-9.85e-06,0.0,0 STARLINK-6052,1 56793U 23078AC  24219.16775201 -.00000985  00000-0 -74802-4 0  9996,2 56793  70.0014   8.1568 0002968 272.9358  87.1461 14.98332031 65982,6950.187,96.107,574.114,569.989,0.0
56793.0,STARLINK-6052,PAYLOAD,2024-08-06 13:38:22,14.98323876,0.0002844,70.0018,7.1477,273.5326,86.5508,1.0945e-05,3.8e-07,0.0,0 STARLINK-6052,1 56793U 23078AC  24219.56831644  .00000038  00000-0  10945-4 0  9999,2 56793  70.0018   7.1477 0002844 273.5326  86.5508 14.98323876 65789,6950.212,96.107,574.053,570.1,0.0
56793.0,STARLINK-6052,PAYLOAD,2024-08-06 20:02:54,14.98323954,0.0002696,70.0022,6.475,270.8907,89.1943,5.144e-05,5.21e-06,0.0,0 STARLINK-6052,1 56793U 23078AC  24219.83535622  .00000521  00000-0  51440-4 0  9998,2 56793  70.0022   6.4750 0002696 270.8907  89.1943 14.98323954 65824,6950.212,96.107,573.95,570.203,0.0
56793.0,STARLINK-6052,PAYLOAD,2024-08-07 12:04:14,14.98334923,0.0002788,70.002,4.792,276.4553,83.6288,1.2424e-05,5.5e-07,0.0,0 STARLINK-6052,1 56793U 23078AC  24220.50295034  .00000055  00000-0  12424-4 0  9995,2 56793  70.0020   4.7920 0002788 276.4553  83.6288 14.98334923 66182,6950.178,96.107,573.98,570.105,0.0
56793.0,STARLINK-6052,PAYLOAD,2024-08-07 20:04:54,14.98338682,0.0002739,70.0019,3.9505,268.0361,92.0485,0.00013959,1.573e-05,0.0,0 STARLINK-6052,1 56793U 23078AC  24220.83674333  .00001573  00000-0  13959-3 0  9993,2 56793  70.0019   3.9505 0002739 268.0361  92.0485 14.98338682 65975,6950.166,96.106,573.935,570.127,0.0
56793.0,STARLINK-6052,PAYLOAD,2024-08-08 13:42:23,14.98327587,0.0002774,70.0034,2.1006,269.5792,90.5049,0.00011439,1.272e-05,0.0,0 STARLINK-6052,1 56793U 23078AC  24221.57111105  .00001272  00000-0  11439-3 0  9995,2 56793  70.0034   2.1006 0002774 269.5792  90.5049 14.98327587 66086,6950.2,96.107,573.993,570.137,0.0
56793.0,STARLINK-6052,PAYLOAD,2024-08-08 18:30:48,14.98329642,0.0002603,70.0034,1.5957,262.6425,97.4438,0.00012654,1.417e-05,0.0,0 STARLINK-6052,1 56793U 23078AC  24221.77138938  .00001417  00000-0  12654-3 0  9991,2 56793  70.0034   1.5957 0002603 262.6425  97.4438 14.98329642 66376,6950.194,96.107,573.868,570.25,0.0
56793.0,STARLINK-6052,PAYLOAD,2024-08-09 13:44:24,14.98330196,0.0002732,70.0027,359.5757,261.7887,98.2963,-1.0863e-05,-2.23e-06,0.0,0 STARLINK-6052,1 56793U 23078AC  24222.57251125 -.00000223  00000-0 -10863-4 0  9991,2 56793  70.0027 359.5757 0002732 261.7887  98.2963 14.98330196 66230,6950.192,96.107,573.956,570.158,0.0
